CELESTIS-17 & SHERPA-FX1
1 47486U 21006CB  26068.64311433  .00007207  00000+0  24301-3 0  9993
2 47486  97.2397 112.1052 0006630 178.1385 181.9882 15.30994801284065
STARLINK-32169          
1 60589U 24150G   26068.86843275  .00000414  00000+0  26105-4 0  9991
2 60589  53.1609 306.5604 0001064  74.7722 285.3397 15.30178264 88064
